satname,norad_id,inclination_deg,eccentricity,mean_motion_rev_per_day,perigee_km,apogee_km,l1,l2
STARLINK-1190,45083,53.03,0.0002648,16.21165144,214.64405569852624,218.1365173494696,1 45083U 20006AR  25327.74402003  .01919461  11851-4  88299-3 0  9997,2 45083  53.0300 316.9639 0002648 302.6644  57.4138 16.21165144321684
STARLINK-1185,45087,53.0548,9.68e-05,15.06399651,546.5422537292698,547.8830014171672,1 45087U 20006AV  25327.38954899 -.00000483  00000+0 -13533-4 0  9991,2 45087  53.0548   3.8161 0000968 113.2884 246.8207 15.06399651321000
STARLINK-1183,45088,53.0559,0.0001521,15.06389769,546.1895643721955,548.2962649422343,1 45088U 20006AW  25327.41167171 -.00003828  00000+0 -23827-3 0  9997,2 45088  53.0559   3.7200 0001521  94.7551 265.3612 15.06389769321001
STARLINK-1142,45093,53.0311,0.0008489,15.72451413,346.18015257969,357.6063979810615,1 45093U 20006BB  25327.91668980  .00299082  00000+0  21237-2 0  9991,2 45093  53.0311 284.6357 0008489  94.2973 141.8234 15.72451413  5847
STARLINK-1152,45096,53.0447,0.0003882,15.26149448,484.6708524419091,490.0012057016802,1 45096U 20006BE  25327.33096438  .00063342  00000+0  24124-2 0  9999,2 45096  53.0447 343.2757 0003882 286.2762  73.7808 15.26149448321287
STARLINK-1184,45098,53.0556,0.0001304,15.06394782,546.3244828655397,548.1306179402845,1 45098U 20006BG  25327.42641457  .00000516  00000+0  53522-4 0  9998,2 45098  53.0556   3.6532 0001304  82.5664 277.5474 15.06394782321007
STARLINK-1193,45100,53.0553,0.0001515,15.06394302,546.1798285903988,548.278214494926,1 45100U 20006BJ  25327.48907704 -.00002143  00000+0 -12504-3 0  9992,2 45100  53.0553   3.3687 0001515  95.9538 264.1624 15.06394302321016
STARLINK-1143,45179,53.0521,0.000732,15.43770836,430.0049129109548,439.9793339476555,1 45179U 20012B   25327.71799940  .00094229  00000+0  20335-2 0  9996,2 45179  53.0521 120.1680 0007320 133.1173 227.0446 15.43770836319465
STARLINK-1202,45183,53.0533,0.0001503,15.06394397,546.187847910247,548.2696128488005,1 45183U 20012F   25327.75078141 -.00001463  00000+0 -79364-4 0  9996,2 45183  53.0533 162.2000 0001503  86.3064 273.8097 15.06394397318879
STARLINK-1216,45185,53.0545,0.0001589,15.06395781,546.1240486552715,548.3249285363463,1 45185U 20012H   25327.74341367  .00000491  00000+0  51839-4 0  9995,2 45185  53.0545 162.2307 0001589  84.5084 275.6086 15.06395781318810
STARLINK-1225,45187,53.052,0.0001252,15.06407911,546.32026136492,548.0543625726377,1 45187U 20012K   25327.76184339  .00001816  00000+0  14073-3 0  9993,2 45187  53.0520 162.1458 0001252  98.4245 261.6886 15.06407911318868
STARLINK-1230,45189,53.0544,0.0001431,15.06398071,546.2264518270968,548.2084882764257,1 45189U 20012M   25327.76552791 -.00001127  00000+0 -56799-4 0  9995,2 45189  53.0544 162.1334 0001431  87.8447 272.2705 15.06398071316091
STARLINK-1234,45190,53.0516,0.0002347,15.39753817,445.2348720944319,448.4385147461235,1 45190U 20012N   25327.91668980  .00135052  00000+0  33119-2 0  9994,2 45190  53.0516 113.2891 0002347 232.1887 348.5358 15.39753817  5878
STARLINK-1269,45197,53.0534,0.0001386,15.06399581,546.2529886251114,548.1726956013463,1 45197U 20012V   25327.77657571 -.00000358  00000+0 -51204-5 0  9999,2 45197  53.0534 162.0820 0001386  97.2741 262.8406 15.06399581318844
STARLINK-1154,45198,53.0525,9.87e-05,15.06399357,546.5299965441936,547.8970607385463,1 45198U 20012W   25327.70102409  .00001360  00000+0  11014-3 0  9993,2 45198  53.0525 142.4202 0000987  52.2748 307.8330 15.06399357319089
STARLINK-1199,45201,53.0542,0.0001543,15.06407433,546.1201991901135,548.257354724883,1 45201U 20012Z   25327.77842977  .00001534  00000+0  12185-3 0  9999,2 45201  53.0542 142.0733 0001543 109.1667 250.9489 15.06407433319155
STARLINK-1209,45206,53.0523,0.0001837,15.33231514,464.9211315700286,467.4357330598614,1 45206U 20012AE  25327.76852314  .00084484  00000+0  25767-2 0  9993,2 45206  53.0523 115.6079 0001837 239.6047 120.4773 15.33231514318572
STARLINK-1210,45207,53.0223,0.0006084,15.62599251,376.04037391217753,384.2638601097551,1 45207U 20012AF  25327.91668980 -.00009797  00000+0 -10174-3 0  9998,2 45207  53.0223  72.3645 0006084 130.5079 353.3278 15.62599251  5837
STARLINK-1231,45212,53.0488,0.0007758,15.13732561,519.4737598687216,530.1844020399303,1 45212U 20012AL  25327.75746709  .00026440  00000+0  14607-2 0  9998,2 45212  53.0488 139.4170 0007758 119.6156 240.5609 15.13732561319143
STARLINK-1271,45217,53.0536,0.0001436,15.06397769,546.223914605579,548.2128766752066,1 45217U 20012AR  25327.76367359 -.00001516  00000+0 -82903-4 0  9999,2 45217  53.0536 142.1372 0001436 100.2768 259.8383 15.06397769319151
STARLINK-1191,45222,53.0544,0.000199,15.06397059,545.842425537594,548.5987178511286,1 45222U 20012AW  25327.70655341 -.00000728  00000+0 -29982-4 0  9992,2 45222  53.0544 122.3947 0001990 106.6735 253.4472 15.06397059319424
STARLINK-1212,45223,53.0543,0.0001468,15.06397568,546.2023694155187,548.2356539405473,1 45223U 20012AX  25327.72505811 -.00000536  00000+0 -17075-4 0  9998,2 45223  53.0543 122.9655 0001468 104.6310 255.4842 15.06397568319421
STARLINK-1215,45225,53.0533,0.0001542,15.0639967,546.14468043734,548.280458244526,1 45225U 20012AZ  25327.74709641  .00003000  00000+0  22024-3 0  9995,2 45225  53.0533 122.2116 0001542  93.8968 266.2197 15.06399670319382
STARLINK-1221,45227,53.0679,0.0004422,15.37695223,449.9059411594999,455.94733384050505,1 45227U 20012BB  25327.53059632  .00014386  00000+0  39260-3 0  9991,2 45227  53.0679  51.0503 0004422  44.1430 315.9925 15.37695223320354
STARLINK-1222,45228,53.054,0.0001289,15.0639341,546.3390753802023,548.1244354453474,1 45228U 20012BC  25327.64757876  .00000371  00000+0  43794-4 0  9996,2 45228  53.0540 122.6580 0001289  99.9423 260.1712 15.06393410319307
STARLINK-1226,45229,53.0549,0.0001332,15.06407759,546.2653245624415,548.1102310832548,1 45229U 20012BD  25327.74340316  .00000749  00000+0  69185-4 0  9996,2 45229  53.0549 122.2274 0001332  97.4876 262.6264 15.06407759319320
STARLINK-1227,45230,53.0537,0.0001657,15.0638925,546.0969696204929,548.392041051361,1 45230U 20012BE  25327.73974137  .00006708  00000+0  46891-3 0  9990,2 45230  53.0537 122.2445 0001657 116.0873 244.0286 15.06389250319440
STARLINK-1246,45235,53.0535,0.000142,15.06398731,546.2320471957291,548.1988472907469,1 45235U 20012BK  25327.75446939  .00000222  00000+0  33773-4 0  9992,2 45235  53.0535 162.1780 0001420 104.8729 255.2417 15.06398731318893
STARLINK-1270,45237,53.0532,0.0001355,15.06412556,546.2346963586842,548.1114553892467,1 45237U 20012BM  25327.75813347  .00004647  00000+0  33056-3 0  9993,2 45237  53.0532 122.1629 0001355  98.3357 261.7786 15.06412556319435
STARLINK-1279,45360,53.0512,0.0008216,15.37913199,446.6692838687459,457.89302698174106,1 45360U 20019A   25327.74537839  .00052099  00000+0  13768-2 0  9996,2 45360  53.0512 244.7926 0008216  87.8876 272.3068 15.37913199314274
STARLINK-1301,45361,53.0518,0.0007578,15.40662757,438.9821597754435,449.32202112092637,1 45361U 20019B   25327.73518869  .00063823  00000+0  15371-2 0  9997,2 45361  53.0518 254.1467 0007578  82.5428 277.6436 15.40662757314150
STARLINK-1306,45362,53.0425,0.0006197,15.78915367,329.3533709215235,337.6717894111807,1 45362U 20019C   25327.91668980  .00140263  00000+0  76735-3 0  9994,2 45362  53.0425 237.4622 0006197  61.4981  66.4166 15.78915367  5926
STARLINK-1262,45366,53.0558,0.0001415,15.06389071,546.265112391091,548.2249955123589,1 45366U 20019G   25327.27162010  .00000934  00000+0  81639-4 0  9990,2 45366  53.0558 284.3398 0001415 105.0287 255.0859 15.06389071313699
STARLINK-1273,45367,53.0536,0.0001507,15.06398662,546.1720080729374,548.2593093642745,1 45367U 20019H   25327.16103290  .00000315  00000+0  40049-4 0  9997,2 45367  53.0536 284.8394 0001507 101.1552 258.9606 15.06398662313677
STARLINK-1276,45368,53.0546,0.0001579,15.06390538,546.1470406409244,548.3340748736646,1 45368U 20019J   25327.26423235 -.00003405  00000+0 -20986-3 0  9995,2 45368  53.0546 284.3810 0001579  89.6724 270.4446 15.06390538313694
STARLINK-1277,45369,53.0545,0.0001625,15.06396656,546.0964360295011,548.3471776417227,1 45369U 20019K   25327.12424963 -.00000990  00000+0 -47552-4 0  9995,2 45369  53.0545 285.6278 0001625 114.7775 245.3384 15.06396656313660
STARLINK-1281,45370,53.0541,0.0001365,15.06395597,546.279740611827,548.1703644521685,1 45370U 20019L   25327.31952470 -.00001850  00000+0 -10534-3 0  9992,2 45370  53.0541 284.1363 0001365  83.7461 276.3684 15.06395597313700
STARLINK-1300,45374,53.0546,0.0002133,15.06395953,545.7467819450958,548.7011409312454,1 45374U 20019Q   25327.14260868  .00000283  00000+0  37938-4 0  9995,2 45374  53.0546 284.9244 0002133  88.9153 271.2081 15.06395953313671
STARLINK-1302,45375,53.0555,0.000176,15.06387302,546.0316075570754,548.46934394854,1 45375U 20019R   25327.15734159 -.00001948  00000+0 -11192-3 0  9990,2 45375  53.0555 284.8597 0001760  83.9840 276.1349 15.06387302313675
STARLINK-1304,45376,53.0549,0.0001375,15.06386354,546.3011401011872,548.2056224560383,1 45376U 20019S   25327.30847355 -.00002146  00000+0 -12527-3 0  9995,2 45376  53.0549 284.1808 0001375  79.5842 280.5301 15.06386354313697
STARLINK-1305,45377,53.0524,0.0006698,15.34602901,457.51865121814626,466.68183302769467,1 45377U 20019T   25327.24843625  .00104284  00000+0  30335-2 0  9995,2 45377  53.0524 277.9275 0006698  74.0200 286.1539 15.34602901313785
STARLINK-1319,45379,53.0542,0.0005658,15.3939671,444.02998360696347,451.75431819412097,1 45379U 20019V   25327.91668980  .00097460  00000+0  24321-2 0  9995,2 45379  53.0542 276.4441 0005658  87.4874 279.1995 15.39396710  5808
STARLINK-1266,45383,53.055,0.0001728,15.0639982,546.0154092862667,548.408809938549,1 45383U 20019Z   25327.26241464  .00018827  00000+0  12795-2 0  9994,2 45383  53.0550 264.3924 0001728  81.8212 278.2973 15.06399820313966
